[{"OBJECT_NAME":"STARLINK-4012","OBJECT_ID":"2022-052E","EPOCH":"2026-03-09T17:30:20.271456","MEAN_MOTION":15.08835354,"ECCENTRICITY":0.00019429,"INCLINATION":53.2173,"RA_OF_ASC_NODE":278.9389,"ARG_OF_PERICENTER":125.8751,"MEAN_ANOMALY":234.2422,"EPHEMERIS_TYPE":0,"CLASSIFICATION_TYPE":"U","NORAD_CAT_ID":52602,"ELEMENT_SET_NO":999,"REV_AT_EPOCH":21166,"BSTAR":0.00030722261,"MEAN_MOTION_DOT":4.604e-5,"MEAN_MOTION_DDOT":0},{"OBJECT_NAME":"THE ARAB SATELLITE 813","OBJECT_ID":"2025-292B","EPOCH":"2026-03-09T21:37:26.354208","MEAN_MOTION":15.05594469,"ECCENTRICITY":0.00142186,"INCLINATION":97.6379,"RA_OF_ASC_NODE":145.6178,"ARG_OF_PERICENTER":341.4344,"MEAN_ANOMALY":18.6363,"EPHEMERIS_TYPE":0,"CLASSIFICATION_TYPE":"U","NORAD_CAT_ID":66994,"ELEMENT_SET_NO":999,"REV_AT_EPOCH":1350,"BSTAR":0.00043840303,"MEAN_MOTION_DOT":6.274e-5,"MEAN_MOTION_DDOT":0}]
